<?xml version="1.0" encoding="UTF-8"?>
<ndm xmlns:xsi="http://www.w3.org/2001/XMLSchema-instance" xsi:noNamespaceSchemaLocation="https://sanaregistry.org/r/ndmxml_unqualified/ndmxml-2.0.0-master-2.0.xsd">
<omm id="CCSDS_OMM_VERS" version="2.0">
<header><CREATION_DATE/><ORIGINATOR/></header><body><segment><metadata><OBJECT_NAME>ONEWEB-0144</OBJECT_NAME><OBJECT_ID>2020-100AJ</OBJECT_ID><CENTER_NAME>EARTH</CENTER_NAME><REF_FRAME>TEME</REF_FRAME><TIME_SYSTEM>UTC</TIME_SYSTEM><MEAN_ELEMENT_THEORY>SGP4</MEAN_ELEMENT_THEORY></metadata><data><meanElements><EPOCH>2025-01-03T12:26:31.221024</EPOCH><MEAN_MOTION>13.12441516</MEAN_MOTION><ECCENTRICITY>.0002037</ECCENTRICITY><INCLINATION>87.8880</INCLINATION><RA_OF_ASC_NODE>96.1139</RA_OF_ASC_NODE><ARG_OF_PERICENTER>112.7010</ARG_OF_PERICENTER><MEAN_ANOMALY>247.4334</MEAN_ANOMALY></meanElements><tleParameters><EPHEMERIS_TYPE>0</EPHEMERIS_TYPE><CLASSIFICATION_TYPE>U</CLASSIFICATION_TYPE><NORAD_CAT_ID>47290</NORAD_CAT_ID><ELEMENT_SET_NO>999</ELEMENT_SET_NO><REV_AT_EPOCH>19509</REV_AT_EPOCH><BSTAR>-.70221E-3</BSTAR><MEAN_MOTION_DOT>-.24E-5</MEAN_MOTION_DOT><MEAN_MOTION_DDOT>0</MEAN_MOTION_DDOT></tleParameters></data></segment></body></omm>
<omm id="CCSDS_OMM_VERS" version="2.0">
<header><CREATION_DATE/><ORIGINATOR/></header><body><segment><metadata><OBJECT_NAME>ONEWEB-0145</OBJECT_NAME><OBJECT_ID>2020-100AK</OBJECT_ID><CENTER_NAME>EARTH</CENTER_NAME><REF_FRAME>TEME</REF_FRAME><TIME_SYSTEM>UTC</TIME_SYSTEM><MEAN_ELEMENT_THEORY>SGP4</MEAN_ELEMENT_THEORY></metadata><data><meanElements><EPOCH>2025-01-03T11:44:29.080608</EPOCH><MEAN_MOTION>13.12440931</MEAN_MOTION><ECCENTRICITY>.0001861</ECCENTRICITY><INCLINATION>87.8880</INCLINATION><RA_OF_ASC_NODE>96.1449</RA_OF_ASC_NODE><ARG_OF_PERICENTER>109.9102</ARG_OF_PERICENTER><MEAN_ANOMALY>250.2227</MEAN_ANOMALY></meanElements><tleParameters><EPHEMERIS_TYPE>0</EPHEMERIS_TYPE><CLASSIFICATION_TYPE>U</CLASSIFICATION_TYPE><NORAD_CAT_ID>47291</NORAD_CAT_ID><ELEMENT_SET_NO>999</ELEMENT_SET_NO><REV_AT_EPOCH>19528</REV_AT_EPOCH><BSTAR>.22807E-3</BSTAR><MEAN_MOTION_DOT>.95E-6</MEAN_MOTION_DOT><MEAN_MOTION_DDOT>0</MEAN_MOTION_DDOT></tleParameters></data></segment></body></omm>
<omm id="CCSDS_OMM_VERS" version="2.0">
<header><CREATION_DATE/><ORIGINATOR/></header><body><segment><metadata><OBJECT_NAME>ONEWEB-0146</OBJECT_NAME><OBJECT_ID>2020-100AL</OBJECT_ID><CENTER_NAME>EARTH</CENTER_NAME><REF_FRAME>TEME</REF_FRAME><TIME_SYSTEM>UTC</TIME_SYSTEM><MEAN_ELEMENT_THEORY>SGP4</MEAN_ELEMENT_THEORY></metadata><data><meanElements><EPOCH>2025-01-03T11:39:48.727296</EPOCH><MEAN_MOTION>13.12441288</MEAN_MOTION><ECCENTRICITY>.000142</ECCENTRICITY><INCLINATION>87.8878</INCLINATION><RA_OF_ASC_NODE>96.1308</RA_OF_ASC_NODE><ARG_OF_PERICENTER>96.1964</ARG_OF_PERICENTER><MEAN_ANOMALY>263.9326</MEAN_ANOMALY></meanElements><tleParameters><EPHEMERIS_TYPE>0</EPHEMERIS_TYPE><CLASSIFICATION_TYPE>U</CLASSIFICATION_TYPE><NORAD_CAT_ID>47292</NORAD_CAT_ID><ELEMENT_SET_NO>999</ELEMENT_SET_NO><REV_AT_EPOCH>19519</REV_AT_EPOCH><BSTAR>.5786E-3</BSTAR><MEAN_MOTION_DOT>.221E-5</MEAN_MOTION_DOT><MEAN_MOTION_DDOT>0</MEAN_MOTION_DDOT></tleParameters></data></segment></body></omm>
<omm id="CCSDS_OMM_VERS" version="2.0">
<header><CREATION_DATE/><ORIGINATOR/></header><body><segment><metadata><OBJECT_NAME>ONEWEB-0147</OBJECT_NAME><OBJECT_ID>2020-100AM</OBJECT_ID><CENTER_NAME>EARTH</CENTER_NAME><REF_FRAME>TEME</REF_FRAME><TIME_SYSTEM>UTC</TIME_SYSTEM><MEAN_ELEMENT_THEORY>SGP4</MEAN_ELEMENT_THEORY></metadata><data><meanElements><EPOCH>2025-01-03T12:40:33.211488</EPOCH><MEAN_MOTION>13.12444072</MEAN_MOTION><ECCENTRICITY>.0001726</ECCENTRICITY><INCLINATION>87.8873</INCLINATION><RA_OF_ASC_NODE>96.1083</RA_OF_ASC_NODE><ARG_OF_PERICENTER>115.9773</ARG_OF_PERICENTER><MEAN_ANOMALY>244.1533</MEAN_ANOMALY></meanElements><tleParameters><EPHEMERIS_TYPE>0</EPHEMERIS_TYPE><CLASSIFICATION_TYPE>U</CLASSIFICATION_TYPE><NORAD_CAT_ID>47293</NORAD_CAT_ID><ELEMENT_SET_NO>999</ELEMENT_SET_NO><REV_AT_EPOCH>19509</REV_AT_EPOCH><BSTAR>.15255E-3</BSTAR><MEAN_MOTION_DOT>.68E-6</MEAN_MOTION_DOT><MEAN_MOTION_DDOT>0</MEAN_MOTION_DDOT></tleParameters></data></segment></body></omm>
<omm id="CCSDS_OMM_VERS" version="2.0">
<header><CREATION_DATE/><ORIGINATOR/></header><body><segment><metadata><OBJECT_NAME>ONEWEB-0115</OBJECT_NAME><OBJECT_ID>2021-025A</OBJECT_ID><CENTER_NAME>EARTH</CENTER_NAME><REF_FRAME>TEME</REF_FRAME><TIME_SYSTEM>UTC</TIME_SYSTEM><MEAN_ELEMENT_THEORY>SGP4</MEAN_ELEMENT_THEORY></metadata><data><meanElements><EPOCH>2025-01-03T14:07:48.455328</EPOCH><MEAN_MOTION>13.13472168</MEAN_MOTION><ECCENTRICITY>.0001794</ECCENTRICITY><INCLINATION>87.8909</INCLINATION><RA_OF_ASC_NODE>65.5469</RA_OF_ASC_NODE><ARG_OF_PERICENTER>99.5360</ARG_OF_PERICENTER><MEAN_ANOMALY>260.5972</MEAN_ANOMALY></meanElements><tleParameters><EPHEMERIS_TYPE>0</EPHEMERIS_TYPE><CLASSIFICATION_TYPE>U</CLASSIFICATION_TYPE><NORAD_CAT_ID>48042</NORAD_CAT_ID><ELEMENT_SET_NO>999</ELEMENT_SET_NO><REV_AT_EPOCH>18407</REV_AT_EPOCH><BSTAR>-.31118E-3</BSTAR><MEAN_MOTION_DOT>-.101E-5</MEAN_MOTION_DOT><MEAN_MOTION_DDOT>0</MEAN_MOTION_DDOT></tleParameters></data></segment></body></omm>
<omm id="CCSDS_OMM_VERS" version="2.0">
<header><CREATION_DATE/><ORIGINATOR/></header><body><segment><metadata><OBJECT_NAME>ONEWEB-0152</OBJECT_NAME><OBJECT_ID>2021-025B</OBJECT_ID><CENTER_NAME>EARTH</CENTER_NAME><REF_FRAME>TEME</REF_FRAME><TIME_SYSTEM>UTC</TIME_SYSTEM><MEAN_ELEMENT_THEORY>SGP4</MEAN_ELEMENT_THEORY></metadata><data><meanElements><EPOCH>2025-01-03T14:26:05.454528</EPOCH><MEAN_MOTION>13.13471390</MEAN_MOTION><ECCENTRICITY>.0001707</ECCENTRICITY><INCLINATION>87.8907</INCLINATION><RA_OF_ASC_NODE>65.5500</RA_OF_ASC_NODE><ARG_OF_PERICENTER>103.3218</ARG_OF_PERICENTER><MEAN_ANOMALY>256.8102</MEAN_ANOMALY></meanElements><tleParameters><EPHEMERIS_TYPE>0</EPHEMERIS_TYPE><CLASSIFICATION_TYPE>U</CLASSIFICATION_TYPE><NORAD_CAT_ID>48043</NORAD_CAT_ID><ELEMENT_SET_NO>999</ELEMENT_SET_NO><REV_AT_EPOCH>18403</REV_AT_EPOCH><BSTAR>.62173E-3</BSTAR><MEAN_MOTION_DOT>.24E-5</MEAN_MOTION_DOT><MEAN_MOTION_DDOT>0</MEAN_MOTION_DDOT></tleParameters></data></segment></body></omm>
<omm id="CCSDS_OMM_VERS" version="2.0">
<header><CREATION_DATE/><ORIGINATOR/></header><body><segment><metadata><OBJECT_NAME>ONEWEB-0153</OBJECT_NAME><OBJECT_ID>2021-025C</OBJECT_ID><CENTER_NAME>EARTH</CENTER_NAME><REF_FRAME>TEME</REF_FRAME><TIME_SYSTEM>UTC</TIME_SYSTEM><MEAN_ELEMENT_THEORY>SGP4</MEAN_ELEMENT_THEORY></metadata><data><meanElements><EPOCH>2025-01-03T10:14:42.445824</EPOCH><MEAN_MOTION>13.13470711</MEAN_MOTION><ECCENTRICITY>.0001929</ECCENTRICITY><INCLINATION>87.8918</INCLINATION><RA_OF_ASC_NODE>65.5782</RA_OF_ASC_NODE><ARG_OF_PERICENTER>102.2837</ARG_OF_PERICENTER><MEAN_ANOMALY>257.8508</MEAN_ANOMALY></meanElements><tleParameters><EPHEMERIS_TYPE>0</EPHEMERIS_TYPE><CLASSIFICATION_TYPE>U</CLASSIFICATION_TYPE><NORAD_CAT_ID>48044</NORAD_CAT_ID><ELEMENT_SET_NO>999</ELEMENT_SET_NO><REV_AT_EPOCH>18400</REV_AT_EPOCH><BSTAR>-.53357E-3</BSTAR><MEAN_MOTION_DOT>-.182E-5</MEAN_MOTION_DOT><MEAN_MOTION_DDOT>0</MEAN_MOTION_DDOT></tleParameters></data></segment></body></omm>
<omm id="CCSDS_OMM_VERS" version="2.0">
<header><CREATION_DATE/><ORIGINATOR/></header><body><segment><metadata><OBJECT_NAME>ONEWEB-0154</OBJECT_NAME><OBJECT_ID>2021-025D</OBJECT_ID><CENTER_NAME>EARTH</CENTER_NAME><REF_FRAME>TEME</REF_FRAME><TIME_SYSTEM>UTC</TIME_SYSTEM><MEAN_ELEMENT_THEORY>SGP4</MEAN_ELEMENT_THEORY></metadata><data><meanElements><EPOCH>2025-01-03T10:10:08.095584</EPOCH><MEAN_MOTION>13.13470753</MEAN_MOTION><ECCENTRICITY>.000181</ECCENTRICITY><INCLINATION>87.8914</INCLINATION><RA_OF_ASC_NODE>65.5841</RA_OF_ASC_NODE><ARG_OF_PERICENTER>102.1734</ARG_OF_PERICENTER><MEAN_ANOMALY>257.9598</MEAN_ANOMALY></meanElements><tleParameters><EPHEMERIS_TYPE>0</EPHEMERIS_TYPE><CLASSIFICATION_TYPE>U</CLASSIFICATION_TYPE><NORAD_CAT_ID>48045</NORAD_CAT_ID><ELEMENT_SET_NO>999</ELEMENT_SET_NO><REV_AT_EPOCH>18396</REV_AT_EPOCH><BSTAR>-.83033E-3</BSTAR><MEAN_MOTION_DOT>-.29E-5</MEAN_MOTION_DOT><MEAN_MOTION_DDOT>0</MEAN_MOTION_DDOT></tleParameters></data></segment></body></omm>

</ndm>
