ONEWEB-0144             
1 47290U 20100AJ  25003.51841691 -.00000240  00000+0 -70221-3 0  9992
2 47290  87.8880  96.1139 0002037 112.7010 247.4334 13.12441516195095
ONEWEB-0145             
1 47291U 20100AK  25003.48922547  .00000095  00000+0  22807-3 0  9992
2 47291  87.8880  96.1449 0001861 109.9102 250.2227 13.12440931195288
ONEWEB-0146             
1 47292U 20100AL  25003.48598064  .00000221  00000+0  57860-3 0  9994
2 47292  87.8878  96.1308 0001420  96.1964 263.9326 13.12441288195191
ONEWEB-0147             
1 47293U 20100AM  25003.52816217  .00000068  00000+0  15255-3 0  9994
2 47293  87.8873  96.1083 0001726 115.9773 244.1533 13.12444072195098
ONEWEB-0115             
1 48042U 21025A   25003.58875527 -.00000101  00000+0 -31118-3 0  9995
2 48042  87.8909  65.5469 0001794  99.5360 260.5972 13.13472168184076
ONEWEB-0152             
1 48043U 21025B   25003.60145202  .00000240  00000+0  62173-3 0  9996
2 48043  87.8907  65.5500 0001707 103.3218 256.8102 13.13471390184036
ONEWEB-0153             
1 48044U 21025C   25003.42688016 -.00000182  00000+0 -53357-3 0  9993
2 48044  87.8918  65.5782 0001929 102.2837 257.8508 13.13470711184006
ONEWEB-0154             
1 48045U 21025D   25003.42370481 -.00000290  00000+0 -83033-3 0  9992
2 48045  87.8914  65.5841 0001810 102.1734 257.9598 13.13470753183963
